1 8740U          19281.94097222  .00000000  00000-0  00000-0 0 00000
2 8740 097.6720 17.0010 0000000 000.0000 281.1460 15.01920000000000
1 8740U          19282.25000000  .00000000  00000-0  00000-0 0 00000
2 8740 097.6730 17.3060 0000000 000.0000 149.8960 15.01920000000000
1 8740U          19282.67916667  .00000000  00000-0  00000-0 0 00000
2 8740 097.6740 17.7290 0000000 000.0000 307.3960 15.01920000000000
1 8740U          19283.03263889  .00000000  00000-0  00000-0 0 00000
2 8740 097.6740 18.0770 0000000 000.0000 056.1470 15.01920000000000
1 8740U          19283.41180556  .00000000  00000-0  00000-0 0 00000
2 8740 097.6750 18.4510 0000000 000.0000 303.6470 15.01920000000000
1 8740U          19283.67083333  .00000000  00000-0  00000-0 0 00000
2 8740 097.6750 18.7060 0000000 000.0000 262.3970 15.01920000000000
1 8740U          19284.07777778  .00000000  00000-0  00000-0 0 00000
2 8740 097.6760 19.1080 0000000 000.0000 299.8970 15.01920000000000
1 8740U          19284.32708333  .00000000  00000-0  00000-0 0 00000
2 8740 097.6770 19.3530 0000000 000.0000 206.1470 15.01920000000000
1 8740U          19284.67291667  .00000000  00000-0  00000-0 0 00000
2 8740 097.6770 19.6940 0000000 000.0000 273.6480 15.01920000000000
1 8740U          19285.03611111  .00000000  00000-0  00000-0 0 00000
2 8740 097.6780 20.0520 0000000 000.0000 074.8980 15.01920000000000
1 8740U          19285.25000000  .00000000  00000-0  00000-0 0 00000
2 8740 097.6780 20.2630 0000000 000.0000 149.8980 15.01920000000000
1 8740U          19285.61319444  .00000000  00000-0  00000-0 0 00000
2 8740 097.6790 20.6210 0000000 000.0000 311.1480 15.01920000000000
1 8740U          19285.98472222  .00000000  00000-0  00000-0 0 00000
2 8740 097.6790 20.9870 0000000 000.0000 157.3990 15.01920000000000
1 8740U          19286.28402778  .00000000  00000-0  00000-0 0 00000
2 8740 097.6800 21.2820 0000000 000.0000 333.6490 15.01920000000000
1 8740U          19286.65763889  .00000000  00000-0  00000-0 0 00000
2 8740 097.6810 21.6510 0000000 000.0000 191.1490 15.01920000000000
1 8740U          19287.00833333  .00000000  00000-0  00000-0 0 00000
2 8740 097.6810 21.9960 0000000 000.0000 284.8990 15.01920000000000
1 8740U          19287.32222222  .00000000  00000-0  00000-0 0 00000
2 8740 097.6820 22.3060 0000000 000.0000 179.9000 15.01920000000000
1 8740U          19287.65347222  .00000000  00000-0  00000-0 0 00000
2 8740 097.6820 22.6320 0000000 000.0000 168.6500 15.01920000000000
1 8740U          19288.00347222  .00000000  00000-0  00000-0 0 00000
2 8740 097.6830 22.9770 0000000 000.0000 258.6500 15.01920000000000
1 8740U          19288.37986111  .00000000  00000-0  00000-0 0 00000
2 8740 097.6840 23.3480 0000000 000.0000 131.1500 15.01920000000000
1 8740U          19288.68541667  .00000000  00000-0  00000-0 0 00000
2 8740 097.6840 23.6490 0000000 000.0000 341.1510 15.01920000000000
1 8740U          19289.04166667  .00000000  00000-0  00000-0 0 00000
2 8740 097.6850 24.0010 0000000 000.0000 104.9010 15.01920000000000
1 8740U          19289.25902778  .00000000  00000-0  00000-0 0 00000
2 8740 097.6850 24.2150 0000000 000.0000 198.6510 15.01920000000000
1 8740U          19289.67777778  .00000000  00000-0  00000-0 0 00000
2 8740 097.6860 24.6280 0000000 000.0000 299.9010 15.01920000000000
1 8740U          19289.93750000  .00000000  00000-0  00000-0 0 00000
2 8740 097.6860 24.8840 0000000 000.0000 262.4020 15.01920000000000
1 8740U          19290.35416667  .00000000  00000-0  00000-0 0 00000
2 8740 097.6870 25.2940 0000000 000.0000 352.4020 15.01920000000000
1 8740U          19290.71388889  .00000000  00000-0  00000-0 0 00000
2 8740 097.6880 25.6490 0000000 000.0000 134.9020 15.01920000000000
1 8740U          19291.07152778  .00000000  00000-0  00000-0 0 00000
2 8740 097.6880 26.0010 0000000 000.0000 266.1530 15.01920000000000
1 8740U          19291.35277778  .00000000  00000-0  00000-0 0 00000
2 8740 097.6890 26.2790 0000000 000.0000 344.9030 15.01920000000000
1 8740U          19291.62222222  .00000000  00000-0  00000-0 0 00000
2 8740 097.6890 26.5440 0000000 000.0000 359.9030 15.01920000000000
1 8740U          19291.94583333  .00000000  00000-0  00000-0 0 00000
2 8740 097.6900 26.8630 0000000 000.0000 307.4030 15.01920000000000
1 8740U          19292.26944444  .00000000  00000-0  00000-0 0 00000
2 8740 097.6900 27.1820 0000000 000.0000 254.9040 15.01920000000000
1 8740U          19292.72777778  .00000000  00000-0  00000-0 0 00000
2 8740 097.6910 27.6340 0000000 000.0000 209.9040 15.01920000000000
1 8740U          19292.93888889  .00000000  00000-0  00000-0 0 00000
2 8740 097.6910 27.8420 0000000 000.0000 269.9040 15.01920000000000
1 8740U          19293.30069444  .00000000  00000-0  00000-0 0 00000
2 8740 097.6920 28.1990 0000000 000.0000 063.6550 15.01920000000000
1 8740U          19293.62361111  .00000000  00000-0  00000-0 0 00000
2 8740 097.6920 28.5170 0000000 000.0000 007.4050 15.01920000000000
1 8740U          19294.02569444  .00000000  00000-0  00000-0 0 00000
2 8740 097.6930 28.9130 0000000 000.0000 018.6550 15.01920000000000
1 8740U          19294.32083333  .00000000  00000-0  00000-0 0 00000
2 8740 097.6930 29.2040 0000000 000.0000 172.4060 15.01920000000000
1 8740U          19294.59027778  .00000000  00000-0  00000-0 0 00000
2 8740 097.6940 29.4700 0000000 000.0000 187.4060 15.01920000000000
1 8740U          19295.03194444  .00000000  00000-0  00000-0 0 00000
2 8740 097.6950 29.9050 0000000 000.0000 052.4060 15.01920000000000
1 8740U          19295.35000000  .00000000  00000-0  00000-0 0 00000
2 8740 097.6950 30.2190 0000000 000.0000 329.9070 15.01920000000000
1 8740U          19295.63541667  .00000000  00000-0  00000-0 0 00000
2 8740 097.6960 30.5000 0000000 000.0000 071.1570 15.01920000000000
1 8740U          19296.02083333  .00000000  00000-0  00000-0 0 00000
2 8740 097.6960 30.8800 0000000 000.0000 352.4070 15.01920000000000
1 8740U          19296.39930556  .00000000  00000-0  00000-0 0 00000
2 8740 097.6970 31.2530 0000000 000.0000 236.1580 15.01920000000000
1 8740U          19296.70694444  .00000000  00000-0  00000-0 0 00000
2 8740 097.6970 31.5560 0000000 000.0000 097.4080 15.01920000000000
1 8740U          19296.96666667  .00000000  00000-0  00000-0 0 00000
2 8740 097.6980 31.8120 0000000 000.0000 059.9080 15.01920000000000
1 8740U          19297.40138889  .00000000  00000-0  00000-0 0 00000
2 8740 097.6980 32.2410 0000000 000.0000 247.4090 15.01920000000000
1 8740U          19297.63402778  .00000000  00000-0  00000-0 0 00000
2 8740 097.6990 32.4700 0000000 000.0000 063.6590 15.01920000000000
1 8740U          19298.05555556  .00000000  00000-0  00000-0 0 00000
2 8740 097.6990 32.8860 0000000 000.0000 179.9090 15.01920000000000
1 8740U          19298.37361111  .00000000  00000-0  00000-0 0 00000
2 8740 097.7000 33.1990 0000000 000.0000 097.4100 15.01920000000000
1 8740U          19298.61319444  .00000000  00000-0  00000-0 0 00000
2 8740 097.7000 33.4350 0000000 000.0000 311.1600 15.01920000000000
1 8740U          19298.92777778  .00000000  00000-0  00000-0 0 00000
2 8740 097.7010 33.7460 0000000 000.0000 209.9100 15.01920000000000
1 8740U          19299.38611111  .00000000  00000-0  00000-0 0 00000
2 8740 097.7010 34.1970 0000000 000.0000 164.9110 15.01920000000000
1 8740U          19299.71180556  .00000000  00000-0  00000-0 0 00000
2 8740 097.7020 34.5180 0000000 000.0000 123.6610 15.01920000000000
1 8740U          19299.97777778  .00000000  00000-0  00000-0 0 00000
2 8740 097.7020 34.7810 0000000 000.0000 119.9120 15.01920000000000
1 8740U          19300.38333333  .00000000  00000-0  00000-0 0 00000
2 8740 097.7030 35.1800 0000000 000.0000 149.9120 15.01920000000000
1 8740U          19300.73194444  .00000000  00000-0  00000-0 0 00000
2 8740 097.7040 35.5240 0000000 000.0000 232.4120 15.01920000000000
1 8740U          19301.00138889  .00000000  00000-0  00000-0 0 00000
2 8740 097.7040 35.7900 0000000 000.0000 247.4130 15.01920000000000
1 8740U          19301.32430556  .00000000  00000-0  00000-0 0 00000
2 8740 097.7040 36.1080 0000000 000.0000 191.1630 15.01920000000000
1 8740U          19301.74722222  .00000000  00000-0  00000-0 0 00000
2 8740 097.7050 36.5250 0000000 000.0000 314.9140 15.01920000000000
1 8740U          19302.02291667  .00000000  00000-0  00000-0 0 00000
2 8740 097.7050 36.7970 0000000 000.0000 003.6640 15.01920000000000
1 8740U          19302.40833333  .00000000  00000-0  00000-0 0 00000
2 8740 097.7060 37.1770 0000000 000.0000 284.9140 15.01920000000000
1 8740U          19302.61597222  .00000000  00000-0  00000-0 0 00000
2 8740 097.7060 37.3810 0000000 000.0000 326.1650 15.01920000000000
1 8740U          19303.00763889  .00000000  00000-0  00000-0 0 00000
2 8740 097.7070 37.7670 0000000 000.0000 281.1650 15.01920000000000
1 8740U          19303.38472222  .00000000  00000-0  00000-0 0 00000
2 8740 097.7070 38.1390 0000000 000.0000 157.4150 15.01920000000000
1 8740U          19303.71875000  .00000000  00000-0  00000-0 0 00000
2 8740 097.7080 38.4680 0000000 000.0000 161.1660 15.01920000000000
1 8740U          19303.98680556  .00000000  00000-0  00000-0 0 00000
2 8740 097.7080 38.7330 0000000 000.0000 168.6660 15.01920000000000
1 8740U          19304.25069444  .00000000  00000-0  00000-0 0 00000
2 8740 097.7090 38.9930 0000000 000.0000 153.6670 15.01920000000000
1 8740U          19304.60347222  .00000000  00000-0  00000-0 0 00000
2 8740 097.7090 39.3400 0000000 000.0000 258.6670 15.01920000000000
1 8740U          19305.04097222  .00000000  00000-0  00000-0 0 00000
2 8740 097.7100 39.7720 0000000 000.0000 101.1680 15.01920000000000
1 8740U          19305.38402778  .00000000  00000-0  00000-0 0 00000
2 8740 097.7100 40.1100 0000000 000.0000 153.6680 15.01920000000000
1 8740U          19305.74236111  .00000000  00000-0  00000-0 0 00000
2 8740 097.7110 40.4630 0000000 000.0000 288.6680 15.01920000000000
